{"type":"Topology","objects":{"data":{"geometries":[{"properties":{"sa3_code_2021":"20501","sa3_name_2021":"Baw Baw","sa4_name_2021":"Latrobe - Gippsland"},"type":"Polygon","arcs":[[-51,0,-13,1,-227,2,-166,3]],"id":"feature_00"},{"properties":{"sa3_code_2021":"20502","sa3_name_2021":"Gippsland - East","sa4_name_2021":"Latrobe - Gippsland"},"type":"MultiPolygon","arcs":[[[-53,4,-59,5,-57,6,-188,7,-186,8,-184,9]],[[10]],[[11]]],"id":"feature_01"},{"properties":{"sa3_code_2021":"20503","sa3_name_2021":"Gippsland - South West","sa4_name_2021":"Latrobe - Gippsland"},"type":"MultiPolygon","arcs":[[[12,13,-49,14,-55,15]],[[16]],[[17]],[[18]],[[19]],[[20]],[[21]],[[22]],[[23]],[[24]],[[25]],[[26]],[[27]],[[28]],[[29]],[[30]],[[31]],[[32]],[[33]],[[34]],[[35]],[[36]],[[37]],[[38]],[[39]],[[40]],[[41]],[[42]],[[43]],[[44]],[[45]],[[46]],[[47]]],"id":"feature_02"},{"properties":{"sa3_code_2021":"20504","sa3_name_2021":"Latrobe Valley","sa4_name_2021":"Latrobe - Gippsland"},"type":"Polygon","arcs":[[48,49,50,51]],"id":"feature_03"},{"properties":{"sa3_code_2021":"20505","sa3_name_2021":"Wellington","sa4_name_2021":"Latrobe - Gippsland"},"type":"MultiPolygon","arcs":[[[52,53,54,55,56,57,58,59]],[[60]],[[61]],[[62]],[[63]],[[64]],[[65]],[[66]],[[67]],[[68]],[[69]],[[70]],[[71]],[[72]],[[73]],[[74]],[[75]],[[76]],[[77]],[[78]],[[79]],[[80]],[[81]],[[82]],[[83]],[[84]],[[85]],[[86]],[[87]],[[88]],[[89]],[[90]],[[91]],[[92]],[[93]],[[94]],[[95]],[[96]],[[97]],[[98]],[[99]],[[100]],[[101]],[[102]],[[103]],[[104]],[[105]],[[106]],[[107]],[[108]],[[109]],[[110]],[[111]],[[112]],[[113]],[[114]],[[115]],[[116]],[[117]],[[118]],[[119]],[[120]],[[121]],[[122]],[[123]],[[124]],[[125]],[[126]],[[127]],[[128]],[[129]],[[130]],[[131]],[[132]]],"id":"feature_04"},{"properties":{"sa3_code_2021":"20101","sa3_name_2021":"Ballarat","sa4_name_2021":"Ballarat"},"type":"Polygon","arcs":[[-138,133,-141,134]],"id":"feature_05"},{"properties":{"sa3_code_2021":"20102","sa3_name_2021":"Creswick - Daylesford - Ballan","sa4_name_2021":"Ballarat"},"type":"Polygon","arcs":[[-147,135,-236,136,137,138]],"id":"feature_06"},{"properties":{"sa3_code_2021":"20103","sa3_name_2021":"Maryborough - Pyrenees","sa4_name_2021":"Ballarat"},"type":"Polygon","arcs":[[-151,139,140,141,-309,142,-269,143]],"id":"feature_07"},{"properties":{"sa3_code_2021":"20201","sa3_name_2021":"Bendigo","sa4_name_2021":"Bendigo"},"type":"Polygon","arcs":[[-149,144]],"id":"feature_08"},{"properties":{"sa3_code_2021":"20202","sa3_name_2021":"Heathcote - Castlemaine - Kyneton","sa4_name_2021":"Bendigo"},"type":"Polygon","arcs":[[-170,145,146,147]],"id":"feature_09"},{"properties":{"sa3_code_2021":"20203","sa3_name_2021":"Loddon - Elmore","sa4_name_2021":"Bendigo"},"type":"Polygon","arcs":[[148,149,150,151,-281,152]],"id":"feature_10"},{"properties":{"sa3_code_2021":"20301","sa3_name_2021":"Barwon - West","sa4_name_2021":"Geelong"},"type":"Polygon","arcs":[[-158,153,-160,154,-313,155,-311,156]],"id":"feature_11"},{"properties":{"sa3_code_2021":"20302","sa3_name_2021":"Geelong","sa4_name_2021":"Geelong"},"type":"Polygon","arcs":[[157,158]],"id":"feature_12"},{"properties":{"sa3_code_2021":"20303","sa3_name_2021":"Surf Coast - Bellarine Peninsula","sa4_name_2021":"Geelong"},"type":"MultiPolygon","arcs":[[[159,160]],[[161]],[[162]],[[163]],[[164]]],"id":"feature_13"},{"properties":{"sa3_code_2021":"20401","sa3_name_2021":"Upper Goulburn Valley","sa4_name_2021":"Hume"},"type":"Polygon","arcs":[[165,166,-206,167,-212,168,169,170,-291,171,-301,172,-178,173]],"id":"feature_14"},{"properties":{"sa3_code_2021":"20402","sa3_name_2021":"Wangaratta - Benalla","sa4_name_2021":"Hume"},"type":"Polygon","arcs":[[-293,174,-182,175,-180,176,177,178]],"id":"feature_15"},{"properties":{"sa3_code_2021":"20403","sa3_name_2021":"Wodonga - Alpine","sa4_name_2021":"Hume"},"type":"Polygon","arcs":[[179,180,181,182,183,184,185,186,187,188]],"id":"feature_16"},{"properties":{"sa3_code_2021":"20601","sa3_name_2021":"Brunswick - Coburg","sa4_name_2021":"Melbourne - Inner"},"type":"Polygon","arcs":[[189]],"id":"feature_17"},{"properties":{"sa3_code_2021":"20602","sa3_name_2021":"Darebin - South","sa4_name_2021":"Melbourne - Inner"},"type":"Polygon","arcs":[[190]],"id":"feature_18"},{"properties":{"sa3_code_2021":"20603","sa3_name_2021":"Essendon","sa4_name_2021":"Melbourne - Inner"},"type":"Polygon","arcs":[[191]],"id":"feature_19"},{"properties":{"sa3_code_2021":"20604","sa3_name_2021":"Melbourne City","sa4_name_2021":"Melbourne - Inner"},"type":"Polygon","arcs":[[192]],"id":"feature_20"},{"properties":{"sa3_code_2021":"20605","sa3_name_2021":"Port Phillip","sa4_name_2021":"Melbourne - Inner"},"type":"Polygon","arcs":[[193]],"id":"feature_21"},{"properties":{"sa3_code_2021":"20606","sa3_name_2021":"Stonnington - West","sa4_name_2021":"Melbourne - Inner"},"type":"Polygon","arcs":[[194]],"id":"feature_22"},{"properties":{"sa3_code_2021":"20607","sa3_name_2021":"Yarra","sa4_name_2021":"Melbourne - Inner"},"type":"Polygon","arcs":[[195]],"id":"feature_23"},{"properties":{"sa3_code_2021":"20701","sa3_name_2021":"Boroondara","sa4_name_2021":"Melbourne - Inner East"},"type":"Polygon","arcs":[[196]],"id":"feature_24"},{"properties":{"sa3_code_2021":"20702","sa3_name_2021":"Manningham - West","sa4_name_2021":"Melbourne - Inner East"},"type":"Polygon","arcs":[[197]],"id":"feature_25"},{"properties":{"sa3_code_2021":"20703","sa3_name_2021":"Whitehorse - West","sa4_name_2021":"Melbourne - Inner East"},"type":"Polygon","arcs":[[198]],"id":"feature_26"},{"properties":{"sa3_code_2021":"20801","sa3_name_2021":"Bayside","sa4_name_2021":"Melbourne - Inner South"},"type":"Polygon","arcs":[[199]],"id":"feature_27"},{"properties":{"sa3_code_2021":"20802","sa3_name_2021":"Glen Eira","sa4_name_2021":"Melbourne - Inner South"},"type":"Polygon","arcs":[[200]],"id":"feature_28"},{"properties":{"sa3_code_2021":"20803","sa3_name_2021":"Kingston","sa4_name_2021":"Melbourne - Inner South"},"type":"Polygon","arcs":[[201]],"id":"feature_29"},{"properties":{"sa3_code_2021":"20804","sa3_name_2021":"Stonnington - East","sa4_name_2021":"Melbourne - Inner South"},"type":"Polygon","arcs":[[202]],"id":"feature_30"},{"properties":{"sa3_code_2021":"20901","sa3_name_2021":"Banyule","sa4_name_2021":"Melbourne - North East"},"type":"Polygon","arcs":[[-208,203]],"id":"feature_31"},{"properties":{"sa3_code_2021":"20902","sa3_name_2021":"Darebin - North","sa4_name_2021":"Melbourne - North East"},"type":"Polygon","arcs":[[204]],"id":"feature_32"},{"properties":{"sa3_code_2021":"20903","sa3_name_2021":"Nillumbik - Kinglake","sa4_name_2021":"Melbourne - North East"},"type":"Polygon","arcs":[[205,206,207,208]],"id":"feature_33"},{"properties":{"sa3_code_2021":"20904","sa3_name_2021":"Whittlesea - Wallan","sa4_name_2021":"Melbourne - North East"},"type":"Polygon","arcs":[[209]],"id":"feature_34"},{"properties":{"sa3_code_2021":"21001","sa3_name_2021":"Keilor","sa4_name_2021":"Melbourne - North West"},"type":"Polygon","arcs":[[210]],"id":"feature_35"},{"properties":{"sa3_code_2021":"21002","sa3_name_2021":"Macedon Ranges","sa4_name_2021":"Melbourne - North West"},"type":"Polygon","arcs":[[211,212,-217,213]],"id":"feature_36"},{"properties":{"sa3_code_2021":"21003","sa3_name_2021":"Moreland - North","sa4_name_2021":"Melbourne - North West"},"type":"Polygon","arcs":[[214]],"id":"feature_37"},{"properties":{"sa3_code_2021":"21004","sa3_name_2021":"Sunbury","sa4_name_2021":"Melbourne - North West"},"type":"Polygon","arcs":[[-219,215,216,217]],"id":"feature_38"},{"properties":{"sa3_code_2021":"21005","sa3_name_2021":"Tullamarine - Broadmeadows","sa4_name_2021":"Melbourne - North West"},"type":"Polygon","arcs":[[218,219]],"id":"feature_39"},{"properties":{"sa3_code_2021":"21101","sa3_name_2021":"Knox","sa4_name_2021":"Melbourne - Outer East"},"type":"Polygon","arcs":[[-225,220]],"id":"feature_40"},{"properties":{"sa3_code_2021":"21102","sa3_name_2021":"Manningham - East","sa4_name_2021":"Melbourne - Outer East"},"type":"Polygon","arcs":[[221]],"id":"feature_41"},{"properties":{"sa3_code_2021":"21103","sa3_name_2021":"Maroondah","sa4_name_2021":"Melbourne - Outer East"},"type":"Polygon","arcs":[[222]],"id":"feature_42"},{"properties":{"sa3_code_2021":"21104","sa3_name_2021":"Whitehorse - East","sa4_name_2021":"Melbourne - Outer East"},"type":"Polygon","arcs":[[223]],"id":"feature_43"},{"properties":{"sa3_code_2021":"21105","sa3_name_2021":"Yarra Ranges","sa4_name_2021":"Melbourne - Outer East"},"type":"Polygon","arcs":[[224,225]],"id":"feature_44"},{"properties":{"sa3_code_2021":"21201","sa3_name_2021":"Cardinia","sa4_name_2021":"Melbourne - South East"},"type":"Polygon","arcs":[[226,227]],"id":"feature_45"},{"properties":{"sa3_code_2021":"21202","sa3_name_2021":"Casey - North","sa4_name_2021":"Melbourne - South East"},"type":"Polygon","arcs":[[228]],"id":"feature_46"},{"properties":{"sa3_code_2021":"21203","sa3_name_2021":"Casey - South","sa4_name_2021":"Melbourne - South East"},"type":"Polygon","arcs":[[229]],"id":"feature_47"},{"properties":{"sa3_code_2021":"21204","sa3_name_2021":"Dandenong","sa4_name_2021":"Melbourne - South East"},"type":"Polygon","arcs":[[230]],"id":"feature_48"},{"properties":{"sa3_code_2021":"21205","sa3_name_2021":"Monash","sa4_name_2021":"Melbourne - South East"},"type":"Polygon","arcs":[[231]],"id":"feature_49"},{"properties":{"sa3_code_2021":"21301","sa3_name_2021":"Brimbank","sa4_name_2021":"Melbourne - West"},"type":"Polygon","arcs":[[232]],"id":"feature_50"},{"properties":{"sa3_code_2021":"21302","sa3_name_2021":"Hobsons Bay","sa4_name_2021":"Melbourne - West"},"type":"Polygon","arcs":[[233]],"id":"feature_51"},{"properties":{"sa3_code_2021":"21303","sa3_name_2021":"Maribyrnong","sa4_name_2021":"Melbourne - West"},"type":"Polygon","arcs":[[234]],"id":"feature_52"},{"properties":{"sa3_code_2021":"21304","sa3_name_2021":"Melton - Bacchus Marsh","sa4_name_2021":"Melbourne - West"},"type":"Polygon","arcs":[[235,236]],"id":"feature_53"},{"properties":{"sa3_code_2021":"21305","sa3_name_2021":"Wyndham","sa4_name_2021":"Melbourne - West"},"type":"Polygon","arcs":[[237]],"id":"feature_54"},{"properties":{"sa3_code_2021":"21401","sa3_name_2021":"Frankston","sa4_name_2021":"Mornington Peninsula"},"type":"Polygon","arcs":[[238]],"id":"feature_55"},{"properties":{"sa3_code_2021":"21402","sa3_name_2021":"Mornington Peninsula","sa4_name_2021":"Mornington Peninsula"},"type":"MultiPolygon","arcs":[[[239]],[[240]],[[241]],[[242]],[[243]],[[244]],[[245]],[[246]],[[247]],[[248]],[[249]],[[250]],[[251]],[[252]],[[253]],[[254]],[[255]],[[256]],[[257]],[[258]],[[259]],[[260]],[[261]],[[262]]],"id":"feature_56"},{"properties":{"sa3_code_2021":"21501","sa3_name_2021":"Grampians","sa4_name_2021":"North West"},"type":"Polygon","arcs":[[-305,263,-274,264,-287,265,-285,266,-283,267,268,269,-339,270]],"id":"feature_57"},{"properties":{"sa3_code_2021":"21502","sa3_name_2021":"Mildura","sa4_name_2021":"North West"},"type":"Polygon","arcs":[[-279,271,-277,272,273,274]],"id":"feature_58"},{"properties":{"sa3_code_2021":"21503","sa3_name_2021":"Murray River - Swan Hill","sa4_name_2021":"North West"},"type":"Polygon","arcs":[[275,276,277,278,279,280,281,282,283,284,285,286]],"id":"feature_59"},{"properties":{"sa3_code_2021":"21601","sa3_name_2021":"Campaspe","sa4_name_2021":"Shepparton"},"type":"Polygon","arcs":[[-295,287,-297,288,-303,289,290,291]],"id":"feature_60"},{"properties":{"sa3_code_2021":"21602","sa3_name_2021":"Moira","sa4_name_2021":"Shepparton"},"type":"Polygon","arcs":[[292,-299,293,294,295]],"id":"feature_61"},{"properties":{"sa3_code_2021":"21603","sa3_name_2021":"Shepparton","sa4_name_2021":"Shepparton"},"type":"Polygon","arcs":[[296,297,298,299,300,301,302,303]],"id":"feature_62"},{"properties":{"sa3_code_2021":"21701","sa3_name_2021":"Glenelg - Southern Grampians","sa4_name_2021":"Warrnambool and South West"},"type":"Polygon","arcs":[[304,305,-337,306]],"id":"feature_63"},{"properties":{"sa3_code_2021":"21703","sa3_name_2021":"Colac - Corangamite","sa4_name_2021":"Warrnambool and South West"},"type":"MultiPolygon","arcs":[[[-341,307,308,309,310,311,312,313,-343,314]],[[315]],[[316]],[[317]],[[318]],[[319]],[[320]],[[321]],[[322]],[[323]],[[324]],[[325]],[[326]],[[327]],[[328]],[[329]],[[330]],[[331]],[[332]],[[333]],[[334]],[[335]]],"id":"feature_64"},{"properties":{"sa3_code_2021":"21704","sa3_name_2021":"Warrnambool","sa4_name_2021":"Warrnambool and South West"},"type":"MultiPolygon","arcs":[[[336,337,338,339,340,341,342,343]],[[344]]],"id":"feature_65"}],"type":"GeometryCollection"}},"bbox":[140.96310227236668,-39.159000586762566,149.9761924307042,-33.98064982765724],"transform":{"scale":[0.0009013991557493268,0.0005178868645969925],"translate":[140.96310227236668,-39.159000586762566]},"arcs":[[[5911,1799],[-187,-256]],[[5415,1615],[-159,225]],[[5325,2028],[200,677]],[[5732,2917],[428,-57],[-335,-1066]],[[7098,2397],[-89,276]],[[6944,2947],[-61,318]],[[6790,3484],[258,465]],[[7119,3978],[-130,178]],[[7011,4503],[195,46]],[[7956,4664],[2043,-1471],[-2787,-980]],[[9921,3079],[-1,31],[15,-39],[-14,8]],[[9853,3096],[1,2],[1,-5],[-3,0],[1,3]],[[5415,1615],[309,-72]],[[5724,1543],[201,106]],[[5801,1390],[134,-237]],[[6171,1042],[-199,-977],[-1090,1161],[533,389]],[[4600,1235],[0,2],[3,0],[-1,-2],[-2,0]],[[4605,1236],[0,1],[1,0],[-1,-1]],[[4860,1153],[0,0]],[[4864,1150],[0,0]],[[4868,1145],[0,0]],[[4785,1490],[23,203],[229,-137],[-167,-129],[-85,63]],[[4885,1434],[3,10],[3,-12],[-6,2]],[[4799,1359],[5,2],[3,-2],[-1,-1],[-7,1]],[[4865,1424],[0,0]],[[4753,1263],[-146,-26],[272,-92],[-126,118]],[[4853,1284],[9,-19],[0,-9],[-14,17],[5,11]],[[5913,2],[1,4],[2,-1],[-1,-5],[-2,2]],[[5919,7],[1,2],[0,-2],[-1,0]],[[6342,394],[1,5],[4,-3],[-3,-3],[-2,1]],[[6370,400],[-1,5],[4,-4],[-3,-1]],[[6338,419],[-3,6],[0,2],[6,-6],[-3,-2]],[[6322,457],[3,-2],[1,-5],[-5,-2],[1,9]],[[5923,9],[0,2],[1,-1],[-1,-1]],[[5983,39],[5,3],[8,-4],[-9,-3],[-4,4]],[[5836,365],[0,6],[11,-2],[-10,-8],[-1,4]],[[6158,480],[-2,-6],[-7,0],[7,10],[2,-4]],[[5895,747],[0,2],[3,-1],[-1,-2],[-2,1]],[[5932,3],[-4,10],[3,4],[7,-12],[-6,-2]],[[5926,14],[0,1],[1,-1],[-1,0]],[[5845,136],[-11,33],[16,-51],[-5,18]],[[5853,270],[8,-10],[-5,-10],[-6,14],[3,6]],[[5851,96],[-2,8],[1,8],[6,-14],[-5,-2]],[[5848,86],[4,5],[1,-5],[-2,-6],[-3,6]],[[5945,28],[-5,5],[-6,14],[19,-9],[-8,-10]],[[5854,84],[3,3],[1,-6],[-1,-1],[-3,4]],[[5996,612],[3,2],[0,-5],[-2,-1],[-1,4]],[[6025,681],[0,-1],[-2,-1],[2,2]],[[5801,1390],[124,259]],[[5925,1649],[-14,150]],[[5911,1799],[-86,-5]],[[5825,1794],[553,144],[-577,-548]],[[7098,2397],[114,-184]],[[7212,2213],[564,237],[-1605,-1408]],[[6171,1042],[-236,111]],[[5935,1153],[362,2771],[493,-440]],[[6790,3484],[93,-219]],[[6883,3265],[61,-318]],[[6944,2947],[65,-274]],[[7009,2673],[89,-276]],[[6278,789],[2,5],[18,7],[3,-6],[-23,-6]],[[6228,872],[-1,0],[1,1],[0,-1]],[[6224,885],[1,-7],[-3,-1],[1,9],[1,-1]],[[6189,797],[0,-2],[-3,-1],[2,3],[1,0]],[[6192,802],[2,8],[8,-3],[-6,-9],[-4,4]],[[6103,817],[0,2],[2,-4],[-2,-2],[0,4]],[[6172,806],[1,3],[1,-2],[-1,-2],[-1,1]],[[6187,797],[0,0]],[[6174,861],[5,-4],[4,-2],[-5,1],[-4,5]],[[6101,860],[44,-5],[-70,-22],[26,27]],[[6154,839],[-1,5],[8,2],[-5,-7],[-2,0]],[[6218,805],[111,-11],[-136,-83],[-56,31],[-34,69],[115,-6]],[[6286,840],[44,11],[-18,-17],[-26,6]],[[6356,869],[8,-1],[-7,-2],[-1,3]],[[6215,859],[1,2],[7,-4],[-5,-1],[-3,3]],[[6352,866],[1,-3],[-3,2],[2,4],[0,-3]],[[6275,883],[65,-13],[-103,-14],[38,27]],[[6373,867],[27,26],[-52,-61],[-6,2],[31,33]],[[6200,879],[2,3],[9,-6],[-6,1],[-5,2]],[[6217,892],[4,-2],[-8,2],[4,0]],[[6366,881],[1,2],[2,-1],[-1,-1],[-2,0]],[[6353,892],[-3,-3],[1,4],[2,-1]],[[6228,889],[1,-2],[0,-3],[-1,3],[0,2]],[[6350,886],[1,2],[2,-3],[-1,0],[-2,1]],[[6230,882],[0,1],[2,-1],[-1,-1],[-1,1]],[[6435,965],[12,-1],[-5,-3],[-7,4]],[[6450,967],[-5,0],[3,3],[8,-3],[-6,0]],[[6313,961],[2,5],[3,0],[-2,-4],[-3,-1]],[[6498,954],[8,8],[1,0],[-4,-5],[-5,-3]],[[6418,957],[2,-2],[-4,1],[2,1]],[[6490,931],[-67,-25],[50,27],[17,-2]],[[6391,930],[4,31],[13,-22],[-17,-9]],[[6361,911],[13,20],[8,-20],[-19,-11],[-2,11]],[[6492,965],[-20,-3],[-12,-16],[9,24],[23,-5]],[[6330,920],[8,11],[10,-2],[-2,-23],[-16,14]],[[6282,902],[4,-7],[5,-3],[-13,4],[4,6]],[[6263,916],[-2,-3],[-9,1],[8,4],[3,-2]],[[6410,950],[6,-2],[2,-2],[-11,0],[3,4]],[[6400,950],[-2,8],[-1,2],[9,-10],[-6,0]],[[6415,929],[-2,-3],[-4,1],[5,8],[1,-6]],[[6429,935],[5,3],[-10,-4],[5,1]],[[6479,952],[20,12],[-13,-12],[-7,0]],[[6310,939],[1,4],[3,2],[1,-6],[-5,0]],[[6247,908],[-5,-6],[-2,2],[7,5],[0,-1]],[[6392,916],[-3,-3],[-3,2],[5,3],[1,-2]],[[6300,913],[10,5],[-7,-8],[-3,3]],[[6310,913],[2,1],[5,-1],[-5,-1],[-2,1]],[[6395,916],[1,1],[5,-2],[-4,-2],[-2,3]],[[6428,940],[2,4],[2,0],[-3,-5],[-1,1]],[[6343,938],[1,1],[3,-4],[-1,0],[-3,3]],[[6395,927],[1,4],[2,-3],[-3,-1]],[[6421,935],[0,-3],[-3,0],[3,4],[0,-1]],[[6283,925],[1,1],[4,1],[-2,-2],[-3,0]],[[6262,924],[0,-2],[-2,1],[1,1],[1,0]],[[6471,950],[2,2],[2,0],[-1,-1],[-3,-1]],[[6352,912],[0,3],[1,0],[0,-2],[-1,-1]],[[6468,951],[0,1],[2,-1],[-1,-1],[-1,1]],[[6220,904],[1,2],[0,-2],[-1,0]],[[6351,922],[1,1],[3,1],[0,-1],[-4,-1]],[[6415,940],[0,1],[2,0],[-2,-3],[0,2]],[[6501,929],[0,1],[1,-5],[-1,4]],[[6402,928],[0,1],[1,0],[-2,-1],[1,0]],[[6478,932],[2,0],[-2,0]],[[6487,951],[1,0],[0,-2],[-1,2]],[[6348,914],[1,1],[0,-2],[-1,1]],[[6374,932],[2,1],[-1,-1],[-1,0]],[[6401,920],[0,1],[1,1],[0,-1],[-1,-1]],[[6489,949],[0,0]],[[6563,1059],[1,1],[2,-1],[-1,-1],[-2,1]],[[6533,1013],[-36,-31],[-32,34],[99,33],[-31,-36]],[[6523,957],[-8,18],[48,31],[-56,-80],[16,31]],[[6558,1018],[5,7],[-8,-8],[3,1]],[[6534,1009],[0,0]],[[3314,2930],[-243,-73]],[[2987,2991],[322,49]],[[3790,3322],[6,-325]],[[3815,2934],[-501,-4]],[[3314,2930],[-5,110]],[[3309,3040],[-305,677],[448,167]],[[3103,4472],[-116,-1481]],[[2987,2991],[84,-134]],[[3071,2857],[-85,-597],[-211,637]],[[2597,2708],[-257,72]],[[2330,3846],[705,755]],[[3730,4643],[43,246]],[[4255,4492],[-465,-1170]],[[3790,3322],[-338,562]],[[3452,3884],[-27,966],[826,-200]],[[3730,4643],[43,246]],[[3773,4889],[-670,-417]],[[3103,4472],[-68,129]],[[3035,4601],[-426,578]],[[3068,6282],[1049,-1000],[-387,-639]],[[3637,1779],[61,-13]],[[3195,1338],[40,367]],[[3237,1760],[-79,231]],[[2957,2193],[688,289]],[[3637,1779],[8,703]],[[3645,2482],[381,-253],[-389,-450]],[[3195,1338],[503,428]],[[3698,1766],[470,189],[-973,-617]],[[4130,1763],[-1,2],[-1,1],[4,-2],[-2,-1]],[[4077,1722],[0,1],[1,-1],[-1,0]],[[4109,1745],[39,23],[-33,-41],[-6,18]],[[4108,1739],[-2,-3],[-3,2],[5,3],[0,-2]],[[5732,2917],[-207,-212]],[[5525,2705],[-602,625]],[[4773,3378],[-494,368]],[[4150,3758],[105,734]],[[4255,4492],[-4,158]],[[4251,4650],[152,6]],[[4527,4843],[287,17]],[[5290,5136],[102,87]],[[5530,4285],[776,-431],[-574,-937]],[[5733,5739],[444,206]],[[6207,5465],[60,-130]],[[6301,4530],[5,-676],[-776,431]],[[5530,4285],[-138,938]],[[5392,5223],[-47,299]],[[6301,4530],[-34,805]],[[6267,5335],[-60,130]],[[6207,5465],[-30,480]],[[6177,5945],[1629,66],[150,-1347]],[[7956,4664],[-750,-115]],[[7206,4549],[-195,-46]],[[7011,4503],[-22,-347]],[[6989,4156],[130,-178]],[[7119,3978],[-71,-29]],[[7048,3949],[-747,581]],[[4449,2663],[-40,4],[-10,85],[61,-4],[-11,-85]],[[4460,2694],[53,16],[5,-45],[-42,-13],[-16,42]],[[4356,2700],[49,32],[7,-84],[-41,-4],[-15,56]],[[4442,2564],[-68,16],[-3,64],[63,23],[8,-103]],[[4458,2456],[-92,112],[81,-2],[11,-110]],[[4513,2540],[-4,-44],[-49,21],[5,50],[48,-27]],[[4479,2560],[-46,84],[1,23],[95,-12],[-50,-95]],[[4580,2663],[1,-178],[-21,-7],[-82,151],[102,34]],[[4659,2744],[7,-124],[-113,41],[17,57],[89,26]],[[4646,2509],[-62,12],[13,118],[70,-21],[-21,-109]],[[4511,2254],[-49,126],[8,83],[70,-163],[-29,-46]],[[4529,2365],[-54,98],[15,45],[86,-63],[-47,-80]],[[4593,2322],[46,-66],[4,-179],[-126,290],[76,-45]],[[4511,2521],[70,-36],[-5,-40],[-54,35],[-11,41]],[[4629,2738],[9,113]],[[4510,2710],[-53,10],[-11,114],[116,-34],[-52,-90]],[[4773,3378],[150,-48]],[[4923,3330],[-294,-592]],[[4629,2738],[9,113]],[[4638,2851],[135,527]],[[4540,3616],[233,-167],[-230,-632],[-197,384],[194,415]],[[4395,2755],[-74,-84],[-63,141],[108,-13],[29,-44]],[[4150,3758],[129,-12]],[[4279,3746],[56,-573]],[[4114,3073],[36,685]],[[4369,2793],[78,42],[13,-87],[-61,1],[-30,44]],[[4212,3044],[-98,29]],[[4114,3073],[221,100]],[[4335,3173],[-69,-180]],[[4212,3044],[54,-51]],[[4266,2993],[-54,51]],[[4804,2306],[10,194]],[[4675,2720],[128,92],[-88,-211],[-40,119]],[[4790,2560],[-71,-10],[26,142],[75,-25],[-30,-107]],[[4663,2589],[49,19],[-3,-92],[-43,-12],[-3,85]],[[4804,2306],[10,194]],[[4814,2500],[128,652],[511,-527],[-649,-319]],[[5325,2028],[-69,-188]],[[5256,1840],[-352,517],[421,-329]],[[4841,2096],[-110,140],[6,114],[162,-64],[-58,-190]],[[4871,2090],[85,-270],[-239,15],[38,370],[116,-115]],[[4695,2099],[-50,9],[-75,277],[167,-57],[-42,-229]],[[4692,2358],[-122,27],[14,136],[112,-23],[-4,-140]],[[4300,2630],[-98,-26],[-7,285],[84,-39],[21,-220]],[[4358,2575],[14,-91],[-169,-27],[81,122],[74,-4]],[[4366,2692],[8,-111],[-53,-4],[-11,99],[56,16]],[[3815,2934],[-19,63]],[[3796,2997],[406,-393],[-387,330]],[[4155,2611],[101,-225],[-337,-98],[-20,373],[256,-50]],[[4652,1878],[-36,201],[128,9],[-26,-238],[-66,28]],[[4520,1823],[219,-376],[-384,-173],[-263,378],[428,171]],[[4355,1267],[0,0]],[[4355,1272],[0,1],[1,-2],[-1,1]],[[4352,1282],[0,0]],[[4352,1283],[0,0]],[[4190,1550],[0,0]],[[4191,1551],[0,0]],[[4352,1277],[0,0]],[[4352,1278],[0,0]],[[4352,1281],[0,0]],[[4243,1478],[0,0]],[[4190,1546],[0,0]],[[4351,1279],[0,0]],[[4350,1280],[0,1],[1,0],[-1,-1]],[[4190,1548],[0,0]],[[4191,1546],[0,0]],[[4181,1562],[0,-1],[-1,0],[0,1],[1,0]],[[4183,1557],[1,1],[0,-1],[-1,0]],[[4186,1553],[0,0]],[[4715,1603],[-4,-7],[-1,-1],[1,12],[4,-4]],[[4375,1285],[0,0]],[[4374,1285],[0,1],[1,0],[0,-1],[-1,0]],[[4376,1286],[0,0]],[[4361,1285],[0,0]],[[11,3477],[-11,3108]],[[1380,7162],[365,284]],[[1817,6609],[4,-742]],[[1962,5900],[0,-583]],[[2423,5309],[404,-867],[-497,-596]],[[2330,3846],[10,-1066]],[[2340,2780],[37,-221]],[[2126,2553],[-289,367]],[[1924,8249],[41,-601]],[[1829,7655],[-449,-493]],[[1380,7162],[-1380,-577]],[[0,6585],[1,3414],[1333,-331],[392,-1375]],[[1745,7446],[84,209]],[[1829,7655],[136,-7]],[[1965,7648],[-41,601]],[[1924,8249],[-198,44]],[[1726,8293],[922,138],[1185,-2125],[-765,-24]],[[3068,6282],[-459,-1103]],[[2609,5179],[-186,130]],[[2423,5309],[-461,8]],[[1962,5317],[0,583]],[[1962,5900],[-141,-33]],[[1821,5867],[-4,742]],[[1817,6609],[-72,837]],[[4495,5788],[130,-237]],[[4685,5466],[-171,-85]],[[4625,4796],[-98,47]],[[4527,4843],[-124,-187]],[[4403,4656],[-459,43],[-284,1532],[712,-281]],[[5733,5739],[-388,-217]],[[4767,5715],[-272,73]],[[4495,5788],[-123,162]],[[4372,5950],[701,532],[660,-743]],[[4685,5466],[-60,85]],[[4625,5551],[142,164]],[[4767,5715],[578,-193]],[[5345,5522],[-55,-386]],[[5290,5136],[-476,-276]],[[4814,4860],[-189,-64]],[[4625,4796],[-111,585]],[[4514,5381],[171,85]],[[11,3477],[1368,523],[458,-1080]],[[1837,2920],[-161,-294]],[[1006,1728],[-1003,402],[8,1347]],[[2251,2084],[346,624]],[[2597,2708],[178,189]],[[2775,2897],[182,-704]],[[2957,2193],[201,-202]],[[3158,1991],[79,-231]],[[3237,1760],[-2,-55]],[[3235,1705],[-408,-1123],[-700,481]],[[2046,1252],[-12,497]],[[2706,729],[0,1],[1,0],[0,-1],[-1,0]],[[2554,751],[0,1],[1,-1],[-1,0]],[[2328,983],[2,3],[3,-1],[-1,-1],[-4,-1]],[[2336,983],[0,1],[2,2],[0,-2],[-2,-1]],[[2350,973],[1,0],[0,-1],[-1,0],[0,1]],[[2340,982],[0,1],[1,1],[-1,-2]],[[2312,999],[0,1],[1,0],[0,-1],[-1,0]],[[2358,966],[-1,1],[1,0],[0,-1]],[[2365,961],[1,1],[0,-1],[-1,0]],[[2342,980],[0,0]],[[2344,979],[0,0]],[[2371,957],[0,0]],[[2374,954],[0,0]],[[2343,978],[0,1],[1,0],[0,-1],[-1,0]],[[2323,993],[0,0]],[[2343,981],[1,0],[-1,-1],[0,1]],[[2353,976],[0,-1],[-1,0],[0,1],[1,0]],[[2380,947],[-1,0],[1,1],[0,-1]],[[2379,947],[0,0]],[[2370,958],[0,0]],[[2284,1021],[0,2],[1,0],[0,-1],[-1,-1]],[[1006,1728],[670,898]],[[1676,2626],[450,-73]],[[2126,2553],[251,6]],[[2377,2559],[-126,-475]],[[2251,2084],[-217,-335]],[[2034,1749],[12,-497]],[[2046,1252],[81,-189]],[[2127,1063],[-1121,665]],[[1160,1432],[-11,-16],[-6,16],[23,10],[-6,-10]]]}