{"type":"Topology","objects":{"vic_inner_sa3":{"type":"GeometryCollection","geometries":[{"type":"Polygon","arcs":[[0]],"properties":{"sa3_code_2021":"20601","sa3_name_2021":"Brunswick - Coburg","sa4_name_2021":"Melbourne - Inner","sa3_name":"Brunswick - Coburg","ed_asr_per_100k":25335.1,"poor_health_pct":13.98}},{"type":"Polygon","arcs":[[1]],"properties":{"sa3_code_2021":"20602","sa3_name_2021":"Darebin - South","sa4_name_2021":"Melbourne - Inner","sa3_name":"Darebin - South","ed_asr_per_100k":24897,"poor_health_pct":10.93}},{"type":"Polygon","arcs":[[2]],"properties":{"sa3_code_2021":"20603","sa3_name_2021":"Essendon","sa4_name_2021":"Melbourne - Inner","sa3_name":"Essendon","ed_asr_per_100k":22331.9,"poor_health_pct":13.17}},{"type":"Polygon","arcs":[[3,4]],"properties":{"sa3_code_2021":"20604","sa3_name_2021":"Melbourne City","sa4_name_2021":"Melbourne - Inner","sa3_name":"Melbourne City","ed_asr_per_100k":21337.6,"poor_health_pct":10.97}},{"type":"Polygon","arcs":[[5]],"properties":{"sa3_code_2021":"20605","sa3_name_2021":"Port Phillip","sa4_name_2021":"Melbourne - Inner","sa3_name":"Port Phillip","ed_asr_per_100k":22845.2,"poor_health_pct":10.84}},{"type":"Polygon","arcs":[[6]],"properties":{"sa3_code_2021":"20606","sa3_name_2021":"Stonnington - West","sa4_name_2021":"Melbourne - Inner","sa3_name":"Stonnington - West","ed_asr_per_100k":20350.7,"poor_health_pct":9.45}},{"type":"Polygon","arcs":[[7]],"properties":{"sa3_code_2021":"20607","sa3_name_2021":"Yarra","sa4_name_2021":"Melbourne - Inner","sa3_name":"Yarra","ed_asr_per_100k":22840.9,"poor_health_pct":11.19}},{"type":"Polygon","arcs":[[8]],"properties":{"sa3_code_2021":"20701","sa3_name_2021":"Boroondara","sa4_name_2021":"Melbourne - Inner East","sa3_name":"Boroondara","ed_asr_per_100k":15422,"poor_health_pct":9.31}},{"type":"Polygon","arcs":[[9]],"properties":{"sa3_code_2021":"20702","sa3_name_2021":"Manningham - West","sa4_name_2021":"Melbourne - Inner East","sa3_name":"Manningham - West","ed_asr_per_100k":18984.4,"poor_health_pct":10.74}},{"type":"Polygon","arcs":[[10]],"properties":{"sa3_code_2021":"20703","sa3_name_2021":"Whitehorse - West","sa4_name_2021":"Melbourne - Inner East","sa3_name":"Whitehorse - West","ed_asr_per_100k":18496.7,"poor_health_pct":11.54}},{"type":"Polygon","arcs":[[11]],"properties":{"sa3_code_2021":"20801","sa3_name_2021":"Bayside","sa4_name_2021":"Melbourne - Inner South","sa3_name":"Bayside","ed_asr_per_100k":20749.9,"poor_health_pct":8.8}},{"type":"Polygon","arcs":[[12,13]],"properties":{"sa3_code_2021":"20802","sa3_name_2021":"Glen Eira","sa4_name_2021":"Melbourne - Inner South","sa3_name":"Glen Eira","ed_asr_per_100k":17419.8,"poor_health_pct":12.17}},{"type":"Polygon","arcs":[[14]],"properties":{"sa3_code_2021":"20803","sa3_name_2021":"Kingston","sa4_name_2021":"Melbourne - Inner South","sa3_name":"Kingston","ed_asr_per_100k":22308.3,"poor_health_pct":11.89}},{"type":"Polygon","arcs":[[15]],"properties":{"sa3_code_2021":"20804","sa3_name_2021":"Stonnington - East","sa4_name_2021":"Melbourne - Inner South","sa3_name":"Stonnington - East","ed_asr_per_100k":9725.1,"poor_health_pct":9.8}}]}},"arcs":[[[144.97333089198025,-37.77962715690085],[144.9829069221292,-37.73595555696724],[144.9287849417189,-37.73362544691358],[144.93707417205422,-37.777774216932116],[144.97333089198025,-37.77962715690085]],[[144.9835250924021,-37.763803936541336],[144.9975301016677,-37.785571996888],[145.03597128181957,-37.77888356662678],[145.03136801246978,-37.75573199715059],[144.9835250924021,-37.763803936541336]],[[144.90271201253714,-37.78965500694257],[144.9403621218768,-37.78761915664335],[144.9334826419713,-37.744058537147886],[144.89294694181814,-37.73458153650519],[144.88927676243546,-37.76063394665587],[144.90271201253714,-37.78965500694257]],[[144.96023375248015,-37.778044217157834],[144.90271201253714,-37.78965500694257]],[[144.90271201253714,-37.78965500694257],[144.90556251246068,-37.82288803658178],[144.96735490255327,-37.83104486698785],[144.98420180228877,-37.850667376440605],[144.99135105166394,-37.809731237081444],[144.96023375248015,-37.778044217157834]],[[145.01052162174824,-37.86022523681314],[144.97132142177512,-37.829895017069404],[144.8988836721723,-37.82887609679545],[144.98143342185688,-37.88682160695765],[145.01052162174824,-37.86022523681314]],[[145.03105908184358,-37.84372946707634],[144.98792984215888,-37.82962210713538],[144.98332164195654,-37.85565699679885],[145.02768443201967,-37.86631994662591],[145.03105908184358,-37.84372946707634]],[[144.96023375248015,-37.778044217157834],[145.00068936243588,-37.833464166664825],[145.0283650522728,-37.831151907120464],[144.9993179116781,-37.797119037022924],[145.0199816919704,-37.80354002674759],[145.04519629167794,-37.78399860707331],[144.96023375248015,-37.778044217157834]],[[145.09148884173615,-37.78003093652263],[144.99927090194097,-37.7972230371528],[145.07305787169327,-37.87584346675501],[145.0921616816806,-37.87188285690282],[145.09148884173615,-37.78003093652263]],[[145.16228201231067,-37.73771775665922],[145.08260299171155,-37.75137652675348],[145.06711257230958,-37.78093547688987],[145.16867999163063,-37.8023049871274],[145.16228201231067,-37.73771775665922]],[[145.15075407240673,-37.85976959678031],[145.16957552213734,-37.80296549699183],[145.10672029211304,-37.792159106501614],[145.0951109917938,-37.85334955681004],[145.15075407240673,-37.85976959678031]],[[145.02952458237016,-37.99182686684486],[145.05526730253158,-37.967672156811],[144.992264282575,-37.88327351686764],[144.98552605196818,-37.92623780643688],[145.02952458237016,-37.99182686684486]],[[145.0882261121152,-37.89297642671558],[145.01052162174824,-37.86022523681314]],[[145.01052162174824,-37.86022523681314],[144.9967452418073,-37.883501466634584],[145.04522754227006,-37.934312106510426],[145.07953326243447,-37.938752016436986],[145.0882261121152,-37.89297642671558]],[[145.103140332331,-37.9563383064609],[145.0343734618984,-37.933006197026415],[145.12278690261635,-38.084999976756016],[145.1486648524656,-38.0834103664904],[145.14469193184905,-37.9908816167283],[145.103140332331,-37.9563383064609]],[[145.0882261121152,-37.89297642671558],[145.09208456221177,-37.87181030710603],[145.02975803205467,-37.853540466953916],[145.0392762816662,-37.87457999647195],[145.0882261121152,-37.89297642671558]]],"bbox":[144.88927676243546,-38.084999976756016,145.16957552213734,-37.73362544691358]}
