{"type":"Topology","objects":{"vic_metro_sa3":{"type":"GeometryCollection","geometries":[{"type":"Polygon","arcs":[[0]],"properties":{"sa3_code_2021":"20601","sa3_name_2021":"Brunswick - Coburg","sa4_name_2021":"Melbourne - Inner","sa3_name":"Brunswick - Coburg","ed_asr_per_100k":25335.1,"poor_health_pct":13.98}},{"type":"Polygon","arcs":[[1]],"properties":{"sa3_code_2021":"20602","sa3_name_2021":"Darebin - South","sa4_name_2021":"Melbourne - Inner","sa3_name":"Darebin - South","ed_asr_per_100k":24897,"poor_health_pct":10.93}},{"type":"Polygon","arcs":[[2]],"properties":{"sa3_code_2021":"20603","sa3_name_2021":"Essendon","sa4_name_2021":"Melbourne - Inner","sa3_name":"Essendon","ed_asr_per_100k":22331.9,"poor_health_pct":13.17}},{"type":"Polygon","arcs":[[3,4]],"properties":{"sa3_code_2021":"20604","sa3_name_2021":"Melbourne City","sa4_name_2021":"Melbourne - Inner","sa3_name":"Melbourne City","ed_asr_per_100k":21337.6,"poor_health_pct":10.97}},{"type":"Polygon","arcs":[[5]],"properties":{"sa3_code_2021":"20605","sa3_name_2021":"Port Phillip","sa4_name_2021":"Melbourne - Inner","sa3_name":"Port Phillip","ed_asr_per_100k":22845.2,"poor_health_pct":10.84}},{"type":"Polygon","arcs":[[6]],"properties":{"sa3_code_2021":"20606","sa3_name_2021":"Stonnington - West","sa4_name_2021":"Melbourne - Inner","sa3_name":"Stonnington - West","ed_asr_per_100k":20350.7,"poor_health_pct":9.45}},{"type":"Polygon","arcs":[[7]],"properties":{"sa3_code_2021":"20607","sa3_name_2021":"Yarra","sa4_name_2021":"Melbourne - Inner","sa3_name":"Yarra","ed_asr_per_100k":22840.9,"poor_health_pct":11.19}},{"type":"Polygon","arcs":[[8]],"properties":{"sa3_code_2021":"20701","sa3_name_2021":"Boroondara","sa4_name_2021":"Melbourne - Inner East","sa3_name":"Boroondara","ed_asr_per_100k":15422,"poor_health_pct":9.31}},{"type":"Polygon","arcs":[[9]],"properties":{"sa3_code_2021":"20702","sa3_name_2021":"Manningham - West","sa4_name_2021":"Melbourne - Inner East","sa3_name":"Manningham - West","ed_asr_per_100k":18984.4,"poor_health_pct":10.74}},{"type":"Polygon","arcs":[[10]],"properties":{"sa3_code_2021":"20703","sa3_name_2021":"Whitehorse - West","sa4_name_2021":"Melbourne - Inner East","sa3_name":"Whitehorse - West","ed_asr_per_100k":18496.7,"poor_health_pct":11.54}},{"type":"Polygon","arcs":[[11]],"properties":{"sa3_code_2021":"20801","sa3_name_2021":"Bayside","sa4_name_2021":"Melbourne - Inner South","sa3_name":"Bayside","ed_asr_per_100k":20749.9,"poor_health_pct":8.8}},{"type":"Polygon","arcs":[[12,13]],"properties":{"sa3_code_2021":"20802","sa3_name_2021":"Glen Eira","sa4_name_2021":"Melbourne - Inner South","sa3_name":"Glen Eira","ed_asr_per_100k":17419.8,"poor_health_pct":12.17}},{"type":"Polygon","arcs":[[14]],"properties":{"sa3_code_2021":"20803","sa3_name_2021":"Kingston","sa4_name_2021":"Melbourne - Inner South","sa3_name":"Kingston","ed_asr_per_100k":22308.3,"poor_health_pct":11.89}},{"type":"Polygon","arcs":[[15]],"properties":{"sa3_code_2021":"20804","sa3_name_2021":"Stonnington - East","sa4_name_2021":"Melbourne - Inner South","sa3_name":"Stonnington - East","ed_asr_per_100k":9725.1,"poor_health_pct":9.8}},{"type":"Polygon","arcs":[[16,17]],"properties":{"sa3_code_2021":"20901","sa3_name_2021":"Banyule","sa4_name_2021":"Melbourne - North East","sa3_name":"Banyule","ed_asr_per_100k":28998.1,"poor_health_pct":12.32}},{"type":"Polygon","arcs":[[18]],"properties":{"sa3_code_2021":"20902","sa3_name_2021":"Darebin - North","sa4_name_2021":"Melbourne - North East","sa3_name":"Darebin - North","ed_asr_per_100k":26599.7,"poor_health_pct":13.53}},{"type":"Polygon","arcs":[[-17,19,20,21,22]],"properties":{"sa3_code_2021":"20903","sa3_name_2021":"Nillumbik - Kinglake","sa4_name_2021":"Melbourne - North East","sa3_name":"Nillumbik - Kinglake","ed_asr_per_100k":19589.6,"poor_health_pct":12.37}},{"type":"Polygon","arcs":[[23,24,-22,25]],"properties":{"sa3_code_2021":"20904","sa3_name_2021":"Whittlesea - Wallan","sa4_name_2021":"Melbourne - North East","sa3_name":"Whittlesea - Wallan","ed_asr_per_100k":26572.6,"poor_health_pct":16.86}},{"type":"Polygon","arcs":[[26]],"properties":{"sa3_code_2021":"21001","sa3_name_2021":"Keilor","sa4_name_2021":"Melbourne - North West","sa3_name":"Keilor","ed_asr_per_100k":22562.1,"poor_health_pct":11.62}},{"type":"Polygon","arcs":[[27,28,29]],"properties":{"sa3_code_2021":"21002","sa3_name_2021":"Macedon Ranges","sa4_name_2021":"Melbourne - North West","sa3_name":"Macedon Ranges","ed_asr_per_100k":18072.1,"poor_health_pct":13.03}},{"type":"Polygon","arcs":[[30]],"properties":{"sa3_code_2021":"21003","sa3_name_2021":"Moreland - North","sa4_name_2021":"Melbourne - North West","sa3_name":"Moreland - North","ed_asr_per_100k":26565.2,"poor_health_pct":15.47}},{"type":"Polygon","arcs":[[31,-28,32,33,34]],"properties":{"sa3_code_2021":"21004","sa3_name_2021":"Sunbury","sa4_name_2021":"Melbourne - North West","sa3_name":"Sunbury","ed_asr_per_100k":24653.3,"poor_health_pct":15.66}},{"type":"Polygon","arcs":[[-34,35,-24,36]],"properties":{"sa3_code_2021":"21005","sa3_name_2021":"Tullamarine - Broadmeadows","sa4_name_2021":"Melbourne - North West","sa3_name":"Tullamarine - Broadmeadows","ed_asr_per_100k":28800.7,"poor_health_pct":20.26}},{"type":"Polygon","arcs":[[37,38]],"properties":{"sa3_code_2021":"21101","sa3_name_2021":"Knox","sa4_name_2021":"Melbourne - Outer East","sa3_name":"Knox","ed_asr_per_100k":25015.4,"poor_health_pct":13.99}},{"type":"Polygon","arcs":[[39]],"properties":{"sa3_code_2021":"21102","sa3_name_2021":"Manningham - East","sa4_name_2021":"Melbourne - Outer East","sa3_name":"Manningham - East","ed_asr_per_100k":18918.4,"poor_health_pct":10.14}},{"type":"Polygon","arcs":[[40]],"properties":{"sa3_code_2021":"21103","sa3_name_2021":"Maroondah","sa4_name_2021":"Melbourne - Outer East","sa3_name":"Maroondah","ed_asr_per_100k":25344,"poor_health_pct":13.97}},{"type":"Polygon","arcs":[[41]],"properties":{"sa3_code_2021":"21104","sa3_name_2021":"Whitehorse - East","sa4_name_2021":"Melbourne - Outer East","sa3_name":"Whitehorse - East","ed_asr_per_100k":18541,"poor_health_pct":12.35}},{"type":"Polygon","arcs":[[42,43,44,-38,45]],"properties":{"sa3_code_2021":"21105","sa3_name_2021":"Yarra Ranges","sa4_name_2021":"Melbourne - Outer East","sa3_name":"Yarra Ranges","ed_asr_per_100k":26229.6,"poor_health_pct":14.58}},{"type":"Polygon","arcs":[[46,47,48]],"properties":{"sa3_code_2021":"21201","sa3_name_2021":"Cardinia","sa4_name_2021":"Melbourne - South East","sa3_name":"Cardinia","ed_asr_per_100k":26219.4,"poor_health_pct":17.42}},{"type":"Polygon","arcs":[[49]],"properties":{"sa3_code_2021":"21202","sa3_name_2021":"Casey - North","sa4_name_2021":"Melbourne - South East","sa3_name":"Casey - North","ed_asr_per_100k":26239.7,"poor_health_pct":15.91}},{"type":"Polygon","arcs":[[50]],"properties":{"sa3_code_2021":"21203","sa3_name_2021":"Casey - South","sa4_name_2021":"Melbourne - South East","sa3_name":"Casey - South","ed_asr_per_100k":24203.2,"poor_health_pct":19.44}},{"type":"Polygon","arcs":[[51,52,53]],"properties":{"sa3_code_2021":"21204","sa3_name_2021":"Dandenong","sa4_name_2021":"Melbourne - South East","sa3_name":"Dandenong","ed_asr_per_100k":24272.4,"poor_health_pct":15.68}},{"type":"Polygon","arcs":[[54,55]],"properties":{"sa3_code_2021":"21205","sa3_name_2021":"Monash","sa4_name_2021":"Melbourne - South East","sa3_name":"Monash","ed_asr_per_100k":17811.1,"poor_health_pct":11.11}},{"type":"Polygon","arcs":[[56,57]],"properties":{"sa3_code_2021":"21301","sa3_name_2021":"Brimbank","sa4_name_2021":"Melbourne - West","sa3_name":"Brimbank","ed_asr_per_100k":26618.1,"poor_health_pct":16.03}},{"type":"Polygon","arcs":[[58]],"properties":{"sa3_code_2021":"21302","sa3_name_2021":"Hobsons Bay","sa4_name_2021":"Melbourne - West","sa3_name":"Hobsons Bay","ed_asr_per_100k":32524.2,"poor_health_pct":12.63}},{"type":"Polygon","arcs":[[59]],"properties":{"sa3_code_2021":"21303","sa3_name_2021":"Maribyrnong","sa4_name_2021":"Melbourne - West","sa3_name":"Maribyrnong","ed_asr_per_100k":25782.9,"poor_health_pct":12.99}},{"type":"Polygon","arcs":[[60,61,62]],"properties":{"sa3_code_2021":"21304","sa3_name_2021":"Melton - Bacchus Marsh","sa4_name_2021":"Melbourne - West","sa3_name":"Melton - Bacchus Marsh","ed_asr_per_100k":23254.3,"poor_health_pct":19.26}},{"type":"Polygon","arcs":[[63]],"properties":{"sa3_code_2021":"21305","sa3_name_2021":"Wyndham","sa4_name_2021":"Melbourne - West","sa3_name":"Wyndham","ed_asr_per_100k":22467.8,"poor_health_pct":18.7}},{"type":"Polygon","arcs":[[64,65,66]],"properties":{"sa3_code_2021":"21401","sa3_name_2021":"Frankston","sa4_name_2021":"Mornington Peninsula","sa3_name":"Frankston","ed_asr_per_100k":28816,"poor_health_pct":16.45}},{"type":"MultiPolygon","arcs":[[[-66,67]],[[68]],[[69]],[[70]],[[71]],[[72]],[[73]],[[74]],[[75]],[[76]],[[77]],[[78]],[[79]],[[80]],[[81]],[[82]],[[83]],[[84]],[[85]],[[86]],[[87]],[[88]],[[89]],[[90]]],"properties":{"sa3_code_2021":"21402","sa3_name_2021":"Mornington Peninsula","sa4_name_2021":"Mornington Peninsula","sa3_name":"Mornington Peninsula","ed_asr_per_100k":25456.7,"poor_health_pct":12.72}}]}},"arcs":[[[144.97333089198025,-37.77962715690085],[144.9829069221292,-37.73595555696724],[144.9287849417189,-37.73362544691358],[144.93707417205422,-37.777774216932116],[144.97333089198025,-37.77962715690085]],[[144.9835250924021,-37.763803936541336],[144.9975301016677,-37.785571996888],[145.03597128181957,-37.77888356662678],[145.03136801246978,-37.75573199715059],[144.9835250924021,-37.763803936541336]],[[144.90271201253714,-37.78965500694257],[144.9403621218768,-37.78761915664335],[144.9334826419713,-37.744058537147886],[144.89294694181814,-37.73458153650519],[144.88927676243546,-37.76063394665587],[144.90271201253714,-37.78965500694257]],[[144.96023375248015,-37.778044217157834],[144.90271201253714,-37.78965500694257]],[[144.90271201253714,-37.78965500694257],[144.90556251246068,-37.82288803658178],[144.96735490255327,-37.83104486698785],[144.98420180228877,-37.850667376440605],[144.99135105166394,-37.809731237081444],[144.96023375248015,-37.778044217157834]],[[145.01052162174824,-37.86022523681314],[144.97132142177512,-37.829895017069404],[144.8988836721723,-37.82887609679545],[144.98143342185688,-37.88682160695765],[145.01052162174824,-37.86022523681314]],[[145.03105908184358,-37.84372946707634],[144.98792984215888,-37.82962210713538],[144.98332164195654,-37.85565699679885],[145.02768443201967,-37.86631994662591],[145.03105908184358,-37.84372946707634]],[[144.96023375248015,-37.778044217157834],[145.00068936243588,-37.833464166664825],[145.0283650522728,-37.831151907120464],[144.9993179116781,-37.797119037022924],[145.0199816919704,-37.80354002674759],[145.04519629167794,-37.78399860707331],[144.96023375248015,-37.778044217157834]],[[145.09148884173615,-37.78003093652263],[144.99927090194097,-37.7972230371528],[145.07305787169327,-37.87584346675501],[145.0921616816806,-37.87188285690282],[145.09148884173615,-37.78003093652263]],[[145.16228201231067,-37.73771775665922],[145.08260299171155,-37.75137652675348],[145.06711257230958,-37.78093547688987],[145.16867999163063,-37.8023049871274],[145.16228201231067,-37.73771775665922]],[[145.0951109917938,-37.85334955681004],[145.15075407240673,-37.85976959678031],[145.16957552213734,-37.80296549699183],[145.10672029211304,-37.792159106501614],[145.0951109917938,-37.85334955681004]],[[145.02952458237016,-37.99182686684486],[145.05526730253158,-37.967672156811],[144.992264282575,-37.88327351686764],[144.98552605196818,-37.92623780643688],[145.02952458237016,-37.99182686684486]],[[145.0882261121152,-37.89297642671558],[145.01052162174824,-37.86022523681314]],[[145.01052162174824,-37.86022523681314],[144.9967452418073,-37.883501466634584],[145.04522754227006,-37.934312106510426],[145.07953326243447,-37.938752016436986],[145.0882261121152,-37.89297642671558]],[[145.14469193184905,-37.9908816167283],[145.103140332331,-37.9563383064609],[145.0343734618984,-37.933006197026415],[145.12278690261635,-38.084999976756016],[145.1486648524656,-38.0834103664904],[145.14469193184905,-37.9908816167283]],[[145.0882261121152,-37.89297642671558],[145.09208456221177,-37.87181030710603],[145.02975803205467,-37.853540466953916],[145.0392762816662,-37.87457999647195],[145.0882261121152,-37.89297642671558]],[[145.1356710021552,-37.74091355674568],[145.14370348230432,-37.682624156596276]],[[145.14370348230432,-37.682624156596276],[145.08874514161838,-37.69136072663459],[145.03199048207958,-37.73776022687323],[145.038180962247,-37.78350343669456],[145.1356710021552,-37.74091355674568]],[[145.02855707165634,-37.75529365677778],[145.07494868163585,-37.70878913659194],[144.97111297220502,-37.691264977073374],[144.9808408823157,-37.75027100692811],[145.02855707165634,-37.75529365677778]],[[145.1356710021552,-37.74091355674568],[145.3118214620636,-37.715935187126256],[145.36641177196074,-37.54512594691816]],[[145.36641177196074,-37.54512594691816],[145.417551881922,-37.526237776816956],[145.57320938157932,-37.58631399690083],[145.5698654316802,-37.46038693683631],[145.49458681209367,-37.437386587287776],[145.48860738211908,-37.461315546832914],[145.39527699203228,-37.468000996881806],[145.40031151200728,-37.434435557083305],[145.26577094149914,-37.409803807049336],[145.2247639914361,-37.45815799703751]],[[145.2247639914361,-37.45815799703751],[145.23442353166882,-37.51725143693333],[145.14443687229212,-37.57029818722464]],[[145.14443687229212,-37.57029818722464],[145.10039459213917,-37.68173689689262],[145.07889587180776,-37.6881255069787],[145.14370348230432,-37.682624156596276]],[[144.97720526202028,-37.51372863680955],[144.94646051215113,-37.60742563711726]],[[144.94646051215113,-37.60742563711726],[144.97073498179475,-37.68819902707255],[145.0582193120823,-37.699982546779765],[145.10190200201683,-37.687230717215115],[145.08389396240304,-37.66914069714591],[145.14443687229212,-37.57029818722464]],[[145.2247639914361,-37.45815799703751],[145.2656195717805,-37.419353897400654],[145.26582047190897,-37.372703757243855],[145.22731417198383,-37.29426181697061],[145.12526744216993,-37.29389703713278],[145.1176020019679,-37.26321800690111],[145.05613001219106,-37.263486997254695],[145.05521901179682,-37.28651999681828],[145.03043182151833,-37.32957805721826],[144.9211039921034,-37.33266198733524],[144.88065860228076,-37.501275986926665],[144.97720526202028,-37.51372863680955]],[[144.92436625190552,-37.73245507716749],[144.89821452250706,-37.709197336673725],[144.80166216205865,-37.702718026941696],[144.85837666241267,-37.77597787674897],[144.92436625190552,-37.73245507716749]],[[144.67164555223715,-37.56772169698006],[144.63805193198834,-37.49950194678858]],[[144.63805193198834,-37.49950194678858],[144.70110251234928,-37.481911076800046],[144.87050521232229,-37.51553580657397]],[[144.87050521232229,-37.51553580657397],[144.92123065186357,-37.363280217211866],[144.84921826173425,-37.32231638732417],[144.82006959174953,-37.219205247164226],[144.7038114314959,-37.21295829729506],[144.69370399216083,-37.17509898705513],[144.59492269230364,-37.24274312720387],[144.6601660018826,-37.29297199701014],[144.57473852164324,-37.364825776725205],[144.47819934217506,-37.41422610708427],[144.45920591177995,-37.546393957133525],[144.67164555223715,-37.56772169698006]],[[144.9012086118406,-37.712313556761345],[144.92855999189365,-37.73528599701451],[144.98297029198432,-37.73578248698883],[144.9720608421535,-37.69099901703187],[144.9012086118406,-37.712313556761345]],[[144.87050521232229,-37.51553580657397],[144.7008045223049,-37.48194207667748],[144.63805193198834,-37.49950194678858]],[[144.67164555223715,-37.56772169698006],[144.623650091946,-37.56817180684548],[144.6565280118315,-37.64001000680569],[144.76289657240991,-37.664838117083384],[144.76012498229753,-37.58262599685779]],[[144.76012498229753,-37.58262599685779],[144.8081279920303,-37.608883016546834]],[[144.8081279920303,-37.608883016546834],[144.8568741815909,-37.53125702724058],[144.87050521232229,-37.51553580657397]],[[144.76012498229753,-37.58262599685779],[144.76450286164757,-37.66567003651203],[144.83811157240976,-37.70933329673993],[144.97308507159605,-37.69038503667672],[144.94646051215113,-37.60742563711726]],[[144.97720526202028,-37.51372863680955],[144.95000787207152,-37.511273717161444],[144.86777713211066,-37.503364946644595],[144.8081279920303,-37.608883016546834]],[[145.2931809420144,-37.96486811660526],[145.32523739209844,-37.92084975656496],[145.30214297186998,-37.86421618698821]],[[145.30214297186998,-37.86421618698821],[145.3475723720941,-37.858619696764976],[145.21436748232748,-37.8396035069541],[145.19085199208095,-37.878968986842764],[145.20642398210393,-37.93118299650752],[145.26571210184804,-37.94590633699567],[145.2931809420144,-37.96486811660526]],[[145.24056926226035,-37.764763106796025],[145.29643269152757,-37.76345324717982],[145.29244058199822,-37.702554096930676],[145.17687778155488,-37.75014610659373],[145.1677608120757,-37.80249002673163],[145.21353024170287,-37.811766096934754],[145.24056926226035,-37.764763106796025]],[[145.24056926226035,-37.764763106796025],[145.216612812397,-37.83818582716096],[145.28053304190303,-37.83332258705311],[145.31797346199747,-37.84391879678857],[145.30787354156138,-37.77753968711286],[145.24056926226035,-37.764763106796025]],[[145.16628373201698,-37.81819835672571],[145.1692270521639,-37.86201534715885],[145.20752497168925,-37.85611616675091],[145.21082004245702,-37.808496996530444],[145.16628373201698,-37.81819835672571]],[[145.4666712118887,-37.912021476737806],[145.52562707175866,-37.88734869686669],[145.51913375154268,-37.857754077030854]],[[145.51913375154268,-37.857754077030854],[145.63135903222778,-37.91845303682296],[145.6863109122302,-37.88095283682822],[145.74827550217617,-37.90753080695302],[145.80421000165717,-37.8735299868213],[145.7949499817572,-37.815109007340986],[145.87841201193532,-37.79935100738875],[145.7881230218548,-37.721473997436675],[145.81252601166943,-37.62959200710919],[145.76577601162077,-37.61718299702766],[145.73976264164074,-37.566283576920625],[145.67585253165635,-37.62419544703785],[145.59986770150917,-37.56607730692013],[145.56259733159968,-37.59324436684714],[145.41822483146092,-37.526396747060446],[145.36641177196074,-37.54512594691816]],[[145.36641177196074,-37.54512594691816],[145.35388380232973,-37.64391024705741],[145.2869409817428,-37.735311996607166],[145.30428756216858,-37.8215379770975],[145.34761934230542,-37.85940980667046],[145.30214297186998,-37.86421618698821]],[[145.2931809420144,-37.96486811660526],[145.36099188191542,-37.97205406661467],[145.45048302159827,-37.88198598724577],[145.4666712118887,-37.912021476737806]],[[145.51913375154268,-37.857754077030854],[145.5077074317586,-37.89983689666492],[145.4666712118887,-37.912021476737806]],[[145.4666712118887,-37.912021476737806],[145.45060500203405,-37.881933007143644],[145.38351709185065,-37.93827329690083],[145.3640115723363,-38.05176418689018],[145.40061672181156,-38.10784625649728],[145.38885985254566,-38.19251645703992]],[[145.38885985254566,-38.19251645703992],[145.483725762592,-38.23290164653627],[145.52065657201905,-38.30667056643302],[145.5536667724234,-38.29357087651487],[145.59361744205285,-38.33009870663644],[145.61244798183583,-38.28557305702026],[145.7326801119383,-38.28937469680058],[145.70080236191706,-38.20592583702984],[145.76278651178004,-38.108945686709816],[145.73921091166457,-38.10053005678861],[145.76253586205286,-37.9907228670024],[145.73105502186016,-37.95977399670947],[145.765136022168,-37.898620006767],[145.68685344166124,-37.88081486731871],[145.62604079194676,-37.917584097058594],[145.62792489237256,-37.90402799698273],[145.56904272220368,-37.89799272715911],[145.55331757211965,-37.87359174666952],[145.5410801122616,-37.87161516687343],[145.5370801119308,-37.86698069701024],[145.53069517165727,-37.86648011687501],[145.5281211516185,-37.86158420672007],[145.52254899174264,-37.85790799682329],[145.51913375154268,-37.857754077030854]],[[145.32672798192078,-38.073404986941206],[145.3818398419938,-38.06983772644649],[145.37921148196526,-37.975027796983426],[145.23324999234458,-37.941890286746414],[145.22732399236648,-38.00076999705154],[145.32089094210525,-38.04425993697382],[145.32672798192078,-38.073404986941206]],[[145.38885985254566,-38.19251645703992],[145.39901328202996,-38.10174408653607],[145.35418814256482,-38.07682328642562],[145.24898857224204,-38.01701090702398],[145.21544748187782,-38.2087293267337],[145.29830905206887,-38.24849303634342],[145.34620092223474,-38.213780026937314],[145.4306053022139,-38.216480236983756],[145.38885985254566,-38.19251645703992]],[[145.2395833226084,-38.07767698671464],[145.23284998243,-37.953240997056916],[145.08247597172704,-37.92399793654846]],[[145.08247597172704,-37.92399793654846],[145.14469193184905,-37.9908816167283]],[[145.14469193184905,-37.9908816167283],[145.1502697520095,-38.06729948656121],[145.1947276323388,-38.0721444169265],[145.2395833226084,-38.07767698671464]],[[145.0951109917938,-37.85334955681004],[145.08247597172704,-37.92399793654846]],[[145.08247597172704,-37.92399793654846],[145.1924947421393,-37.93760016649133],[145.22010400245932,-37.939552996663004],[145.19570382167657,-37.86517618678135],[145.0951109917938,-37.85334955681004]],[[144.74441279220812,-37.66307709682184],[144.76815111225585,-37.70973109665156],[144.75096972212935,-37.81046295651377]],[[144.75096972212935,-37.81046295651377],[144.85587294183316,-37.814882306531814],[144.83922398227725,-37.796930276480644],[144.8538509922321,-37.76242899710435],[144.80164442212845,-37.704229106881805],[144.82007710166533,-37.68303095661459],[144.74441279220812,-37.66307709682184]],[[144.89112070187983,-37.82547316703988],[144.82478053227092,-37.82358659672724],[144.75170998243252,-37.88666324698907],[144.90425340208876,-37.87252497657381],[144.89112070187983,-37.82547316703988]],[[144.89816929233245,-37.76465345649824],[144.8482147716967,-37.77311287665189],[144.85778894233297,-37.82444706655862],[144.9061315125482,-37.822252026987144],[144.89816929233245,-37.76465345649824]],[[144.74441279220812,-37.66307709682184],[144.65414168219505,-37.63774173700879],[144.62675208241987,-37.5600144269967],[144.45928336182885,-37.54639694711021],[144.42319702176943,-37.613633996565376],[144.38479902183664,-37.60674198700898],[144.40211199179603,-37.63966499683504],[144.33675801246906,-37.620352996361746],[144.40272899246244,-37.727779996701656],[144.48418100176812,-37.69298599645602],[144.47767790249196,-37.78101269694352]],[[144.47767790249196,-37.78101269694352],[144.57699145235836,-37.80685421653014],[144.75096972212935,-37.81046295651377]],[[144.75096972212935,-37.81046295651377],[144.76429017202932,-37.70928996664711],[144.74441279220812,-37.66307709682184]],[[144.47767790249196,-37.78101269694352],[144.44406100240255,-37.864033996357385],[144.48079694209164,-37.89032911655467],[144.49563864221287,-37.97427517654156],[144.65017738271024,-38.002018206612135],[144.79916950243523,-37.92317048699536],[144.8045026619365,-37.89435025648915],[144.75238559188296,-37.876463646518566],[144.82676014247605,-37.81690000640469],[144.7085226720546,-37.80678781654503],[144.47767790249196,-37.78101269694352]],[[145.2395833226084,-38.07767698671464],[145.12383635226047,-38.08216405695911],[145.09790496253322,-38.16240441648787]],[[145.09790496253322,-38.16240441648787],[145.12875198200416,-38.20008717637227]],[[145.12875198200416,-38.20008717637227],[145.15661433187572,-38.18619053641733],[145.21576682218154,-38.20065218686303],[145.2395833226084,-38.07767698671464]],[[145.09790496253322,-38.16240441648787],[145.03724893229193,-38.21487100688645],[144.98662609203424,-38.3183659863038],[144.8596270822538,-38.367047956473456],[144.65157580268942,-38.30340664640725],[144.8385739227101,-38.43032794660665],[144.886652992798,-38.47721697610308],[144.88827914288825,-38.49937100619033],[145.0312650125376,-38.487080976318715],[145.05018515208366,-38.43002195667559],[145.12984118209965,-38.39047639671537],[145.23457202228698,-38.40961260646289],[145.18398623214483,-38.37458663676162],[145.2219518127442,-38.37779730676345],[145.19293435248656,-38.29655699680238],[145.22302010185652,-38.30646191647435],[145.25422000202897,-38.22361000646173],[145.15906202183598,-38.18157071645171],[145.12875198200416,-38.20008717637227]],[[144.88828881235395,-38.50261001671253],[144.88799904279279,-38.502685976189206],[144.88804587286685,-38.50296595629342],[144.88859698210715,-38.50276103644628],[144.88828881235395,-38.50261001671253]],[[144.888785982253,-38.50046703645919],[144.88953806258863,-38.50081596626398],[144.8897140721972,-38.500088046304796],[144.88903298212523,-38.49976403613614],[144.888785982253,-38.50046703645919]],[[144.88580700258254,-38.4951999566024],[144.88589916254418,-38.49517699625507],[144.88593697263445,-38.49507900638554],[144.8856788525174,-38.49509996651091],[144.88580700258254,-38.4951999566024]],[[144.88578218213127,-38.494734036662294],[144.8859718721833,-38.494724046594136],[144.8860348728308,-38.49454997634219],[144.8857649129182,-38.49457300649443],[144.88578218213127,-38.494734036662294]],[[144.73987810204378,-38.356082986596775],[144.7400458920675,-38.355985976479914],[144.7401160828305,-38.35574702632907],[144.73987200248303,-38.3558660066386],[144.73987810204378,-38.356082986596775]],[[144.74042315214749,-38.3559689764146],[144.74093185282146,-38.355975006355784],[144.7410848323211,-38.35587203658833],[144.74069314260277,-38.355785996343286],[144.74042315214749,-38.3559689764146]],[[144.88599490229223,-38.497419996458746],[144.88619795208913,-38.49730397627695],[144.88614218287967,-38.4972249465037],[144.8858329126903,-38.49734996661697],[144.88599490229223,-38.497419996458746]],[[144.88567811230558,-38.49699698657781],[144.88576415294352,-38.4969670166076],[144.8857519223809,-38.49686800622132],[144.88556617233974,-38.49691499658954],[144.88567811230558,-38.49699698657781]],[[144.88555102225243,-38.49572502639778],[144.88560216244326,-38.49558397623768],[144.8853940721993,-38.49560495660525],[144.88538619217763,-38.49568397620347],[144.88555102225243,-38.49572502639778]],[[144.7875608228519,-38.39360696610632],[144.78782187237516,-38.39362198665022],[144.78781282274701,-38.39338699652285],[144.7875428727159,-38.39339501656333],[144.7875608228519,-38.39360696610632]],[[144.74029610251853,-38.35854197643351],[144.74037096272443,-38.358460976584276],[144.74029898251734,-38.35835702629278],[144.74018306211642,-38.358457026263174],[144.74029610251853,-38.35854197643351]],[[144.88513200218986,-38.496378966260245],[144.88529691221476,-38.49600500613987],[144.88474284212728,-38.49594803652875],[144.8847889427694,-38.496278966556126],[144.88513200218986,-38.496378966260245]],[[144.88449409233695,-38.495971976707345],[144.88478098279765,-38.495811956102415],[144.88479106279345,-38.495644016449496],[144.88450417233273,-38.49567300618596],[144.88449409233695,-38.495971976707345]],[[144.74013086281187,-38.35728702648684],[144.7403198225336,-38.35728702648684],[144.74038497284957,-38.357156966564546],[144.74007290261142,-38.35703501641994],[144.74013086281187,-38.35728702648684]],[[144.74074716279233,-38.35835900638694],[144.74068884236746,-38.35815695620086],[144.7404929826861,-38.35820997650204],[144.74046312268607,-38.3582840262201],[144.74074716279233,-38.35835900638694]],[[144.73140984286218,-38.35025001612865],[144.73131586291376,-38.35027197642668],[144.73135907277728,-38.35039895672464],[144.73145412261917,-38.35037599609384],[144.73140984286218,-38.35025001612865]],[[144.73402883256404,-38.35253798667049],[144.7342178623543,-38.35246400645358],[144.73435609241528,-38.35225197651825],[144.7341231826183,-38.352302996227486],[144.73402883256404,-38.35253798667049]],[[144.73607403236124,-38.35454597656348],[144.73626299208297,-38.35437397664887],[144.736103162031,-38.35428695614431],[144.73600884251942,-38.35441898663063],[144.73607403236124,-38.35454597656348]],[[145.21285798207015,-38.32892001646177],[145.20936493249522,-38.32680895690352],[145.20850306186216,-38.33294202627193],[145.20969683214489,-38.332466996819335],[145.21285798207015,-38.32892001646177]],[[144.90677807227905,-38.493585976191646],[144.90732601226298,-38.49373503634988],[144.90743004256277,-38.4933729567398],[144.90681694238137,-38.4932879962719],[144.90677807227905,-38.493585976191646]],[[144.90612684220702,-38.49342597630142],[144.9063820823254,-38.493447026200485],[144.90689903222867,-38.49296696618098],[144.90623919270303,-38.49312797673635],[144.90612684220702,-38.49342597630142]],[[144.90724104241687,-38.4929350167201],[144.90702795215006,-38.492793996252644],[144.90696203287615,-38.49281199629287],[144.90741204212108,-38.49315596627702],[144.90724104241687,-38.4929350167201]],[[144.89436891292914,-38.49359596641759],[144.89448301244494,-38.49330401627544],[144.89430515230688,-38.49326296610786],[144.8941910527911,-38.49341903606979],[144.89436891292914,-38.49359596641759]]],"bbox":[144.33675801246906,-38.50296595629342,145.87841201193532,-37.17509898705513]}
